FLOCK 4G-14             
1 62667U 25009BL  26068.75869712  .00011310  00000+0  42676-3 0  9993
2 62667  97.4064 151.1836 0003006 318.3639  41.7371 15.27197201 63711
STARLINK-36555          
1 67497U 26012E   26067.73709673  .00037273  00000+0  13565-2 0  9990
2 67497  42.9956 320.0039 0000675  70.5265 289.5660 15.27597001  7617
